P/2015 PD229 (Cameron-ISON),e,2.0256,342.6836,352.2799,7.176959,0.0512617,0.32755717,69.1310,04/23.0/2019,2000,g 11.5,2.0
# From MPC 99819
P/2015 Q1 (Scotti),e,22.4602,203.1574,199.8971,3.465122,0.1528010,0.48006134,203.0429,04/23.0/2019,2000,g 14.0,4.0
# From MPC 96867
P/2015 Q2 (Pimentel),e,146.4545,228.3567,244.3732,7.344077,0.0495220,0.75168606,65.5595,04/23.0/2019,2000,g 15.5,4.0
# From MPC 98562
P/2015 R1 (PANSTARRS),e,22.6721,48.5113,300.3756,5.883114,0.0690706,0.63314150,96.4884,04/23.0/2019,2000,g 14.0,4.0
# From MPC 95734
P/2015 R2 (PANSTARRS),e,15.4652,168.6327,149.6703,4.490784,0.1035669,0.45211966,146.3697,04/23.0/2019,2000,g 14.5,4.0
# From MPC102097
C/2015 R3 (PANSTARRS),h,02/13.1951/2014,83.6145,36.4006,271.9997,1.000035,4.897043,2000,10.0,4.0
# From MPC112390
C/2015 T2 (PANSTARRS),e,124.5492,51.0600,30.6965,4638,0.0000031,0.99850489,0.0000,05/19.4275/2017,2000,g  8.0,4.0
# From MPC 96280
P/2015 T3 (PANSTARRS),e,13.0937,120.5019,178.6330,4.326181,0.1095335,0.50818108,359.9227,12/21.0/2014,2000,g 14.0,4.0
# From MPC102953
C/2015 T4 (PANSTARRS),e,87.9581,251.7962,270.0609,81.51281,0.0013393,0.97183756,0.0000,06/18.0811/2016,2000,g 11.0,4.0
# From MPC102097
C/2015 T5 (Sheppard-Tholen),e,11.0477,311.0971,61.7727,27.98969,0.0066559,0.66654243,7.9047,04/23.0/2019,2000,g  7.5,4.0
# From MPC102953
P/2015 TO19 (Lemmon-PANSTARRS),e,6.4991,321.6385,89.2688,4.558920,0.1012537,0.35773755,115.7271,04/23.0/2019,2000,g 14.0,4.0
# From MPC110080
P/2015 TP200 (LINEAR),e,8.7714,6.9764,82.7827,7.289056,0.0500838,0.53519766,45.4260,04/23.0/2019,2000,g 11.0,4.0
# From MPC101097
C/2015 TQ209 (LINEAR),e,11.3528,223.7819,281.7486,857.3619,0.0000393,0.99835234,0.0000,08/27.2277/2016,2000,g 10.5,4.0
# From MPC112390
C/2015 V1 (PANSTARRS),e,139.2238,197.1881,179.6128,14937,0.0000005,0.99971436,0.0000,12/17.5395/2017,2000,g  6.5,4.0
# From MPC112390
C/2015 V2 (Johnson),h,06/12.3108/2017,49.8772,69.8435,164.9418,1.001755,1.638692,2000,5.0,4.0
# From MPC102953
C/2015 V3 (PANSTARRS),e,86.2316,2.2973,0.7113,635.1588,0.0000616,0.99333788,0.0000,11/24.0788/2015,2000,g  9.0,4.0
# From MPC104791
C/2015 V4 (PANSTARRS),e,60.7465,179.9024,307.0796,18.53817,0.0123482,0.70525367,11.9369,04/23.0/2019,2000,g  8.5,4.0
# From MPC111768
C/2015 VL62 (Lemmon-Yeung-PANSTARRS),h,08/28.4283/2017,165.8139,95.0837,128.7381,1.001838,2.713421,2000,8.0,4.0
# From MPC102098
C/2015 WZ (PANSTARRS),e,134.5344,40.1179,66.6144,147.4087,0.0005507,0.99067112,0.0000,04/14.4466/2016,2000,g 15.0,4.0
# From MPC109142
C/2015 W1 (Gibbs),h,05/16.7746/2016,87.3120,114.3230,48.1443,1.000735,2.234553,2000,13.0,4.0
# From MPC101098
P/2015 W2 (Catalina),e,11.6064,294.2397,117.6421,7.306959,0.0498998,0.63315604,64.9141,04/23.0/2019,2000,g 13.0,4.0
# From MPC101098
P/2015 X1 (PANSTARRS),e,12.1529,161.7807,219.0308,3.630035,0.1425076,0.41897482,184.1368,04/23.0/2019,2000,g 16.0,4.0
# From MPC112390
C/2015 XY1 (Lemmon),h,04/29.3463/2018,148.8541,281.6228,196.3206,1.004461,7.927464,2000,5.5,4.0
# From MPC 10028
C/2015 X2 (Catalina),e,72.3467,101.1007,42.3284,15.88219,0.0155718,0.87910799,18.9855,04/23.0/2019,2000,g 16.0,4.0
# From MPC 97498
P/2015 X3 (PANSTARRS),e,24.3817,77.3393,306.7131,5.014306,0.0877784,0.43776435,118.9454,04/23.0/2019,2000,g 15.0,4.0
# From MPC109142
C/2015 X4 (Elenin),e,29.4998,262.6254,176.3322,18.01001,0.0128954,0.81142721,16.3420,04/23.0/2019,2000,g 10.0,4.0
# From MPC112390
C/2015 X5 (PANSTARRS),h,12/30.7187/2017,124.3049,122.3320,27.7368,1.003488,6.801159,2000,7.5,4.0
# From MPC101098
P/2015 X6 (PANSTARRS),e,4.5645,106.9480,329.8476,2.752873,0.2157867,0.17208382,242.7796,04/23.0/2019,2000,g 16.0,4.0
# From MPC109143
C/2015 X7 (ATLAS),h,07/29.9368/2016,57.5633,139.8890,348.5059,1.000824,3.686397,2000,9.0,4.0
# From MPC107048
C/2015 X8 (NEOWISE),e,155.2450,191.1356,20.4538,19.76913,0.0112130,0.93985326,14.3218,04/23.0/2019,2000,g 16.0,4.0
# From MPC109143
C/2015 Y1 (LINEAR),e,71.1884,135.8024,24.7137,266.8721,0.0002261,0.99057218,0.0000,05/14.8011/2016,2000,g 12.0,4.0
# From MPC105543
C/2015 YG1 (NEOWISE),e,57.2547,350.4827,102.5789,17.03836,0.0140140,0.87864475,18.2606,04/23.0/2019,2000,g 13.0,4.0
# From MPC112390
C/2016 A1 (PANSTARRS),h,11/23.3229/2017,121.2011,128.1890,10.3189,1.002335,5.327352,2000,6.0,4.0
# From MPC 10028
P/2016 A2 (Christensen),e,26.4009,291.6369,141.6838,4.745965,0.0953273,0.27241442,133.2499,04/23.0/2019,2000,g 11.5,4.0
# From MPC110494
P/2016 A3 (PANSTARRS),e,8.5321,187.5433,340.0436,7.866427,0.0446722,0.38866084,32.4796,04/23.0/2019,2000,g 10.0,4.0
# From MPC109143
C/2016 A5 (PANSTARRS),e,40.2374,136.1360,321.6206,736.4745,0.0000493,0.99599753,0.0000,06/27.1061/2015,2000,g 13.5,4.0
# From MPC109143
C/2016 A6 (PANSTARRS),e,120.9347,300.3408,141.1128,208.8088,0.0003266,0.98845573,0.0000,11/06.0698/2015,2000,g 15.0,4.0
# From MPC102098
P/2016 A7 (PANSTARRS),e,16.6356,221.4628,352.6079,5.028411,0.0874094,0.56618182,100.7117,04/23.0/2019,2000,g 16.0,4.0
# From MPC106345
C/2016 A8 (LINEAR),e,148.2441,111.3498,130.3413,34.34688,0.0048964,0.94519482,4.7298,04/23.0/2019,2000,g 12.0,4.0
# From MPC107048
C/2016 B1 (NEOWISE),e,50.4749,231.9553,8.6315,432.5673,0.0001096,0.99258051,0.0000,12/04.8675/2016,2000,g  9.5,4.0
# From MPC109143
P/2016 BA14 (PANSTARRS),e,18.9053,180.5408,351.9241,3.023358,0.1874864,0.66552311,212.5920,04/23.0/2019,2000,g 21.0,4.0
# From MPC110494
C/2016 C1 (PANSTARRS),h,02/19.8856/2016,56.1944,181.7862,328.8035,1.003477,8.467239,2000,5.5,4.0
# From MPC101098
C/2016 C2 (NEOWISE),e,38.1299,24.4140,214.4918,65.60843,0.0018547,0.97617940,0.0000,04/19.7427/2016,2000,g 16.0,4.0
# From MPC110494
C/2016 E1 (PANSTARRS),h,06/03.3229/2017,131.8925,233.0406,47.4189,1.004351,8.178897,2000,6.5,4.0
# From MPC 99821
C/2016 E2 (Kowalski),e,135.9320,186.7414,321.8556,138.0037,0.0006080,0.99219785,0.0000,02/06.4583/2016,2000,g 20.0,4.0
# From MPC102098
P/2016 G1 (PANSTARRS),e,10.9680,204.0641,111.2731,2.582777,0.2374508,0.21066856,193.8800,04/23.0/2019,2000,g 14.0,4.0
# From MPEC 2017-D91
P/2016 J1-A (PANSTARRS),e,14.3267,199.8484,46.7938,3.174240,0.1742787,0.22833102,179.8455,04/23.0/2019,2000,g 16.5,4.0
# From MPEC 2017-A77
P/2016 J1-B (PANSTARRS),e,14.3294,199.8532,46.6850,3.173870,0.1743092,0.22818262,179.9516,04/23.0/2019,2000,g 17.0,4.0
# From MPC101099
C/2016 J2 (Denneau),e,130.3451,186.2696,318.5687,597.0611,0.0000676,0.99745226,0.0000,04/11.8603/2016,2000,g 17.0,4.0
# From MPC102099
C/2016 KA (Catalina),e,104.6580,317.5227,63.1568,3427,0.0000049,0.99842315,0.0000,02/01.6746/2016,2000,g  8.5,4.0
# From MPC104792
C/2016 K1 (LINEAR),e,90.8788,325.6587,18.2446,7649,0.0000015,0.99970037,0.0000,07/13.2107/2016,2000,g 13.0,4.0
# From MPC112390
C/2016 M1 (PANSTARRS),e,91.0006,92.2030,209.8342,2224,0.0000094,0.99900582,0.0000,08/10.1870/2018,2000,g  5.0,4.0
# From MPC112390
C/2016 N4 (MASTER),e,72.5652,354.0170,55.9470,2523,0.0000078,0.99873184,0.0000,09/16.4924/2017,2000,g  8.5,4.0
# From MPC112390
C/2016 N6 (PANSTARRS),e,105.8375,298.9791,162.8018,2212,0.0000095,0.99879334,0.0000,07/18.1992/2018,2000,g  7.0,4.0
# From MPC102099
P/2016 P1 (PANSTARRS),e,24.4498,319.5751,270.0019,3.195320,0.1725570,0.28952634,225.6095,04/23.0/2019,2000,g 15.0,4.0
# From MPC102099
C/2016 P4 (PANSTARRS),e,29.8853,320.7616,356.0751,371.3482,0.0001377,0.98413980,0.0000,10/17.2056/2016,2000,g 10.5,4.0
# From MPC112391
C/2016 Q2 (PANSTARRS),e,109.3945,322.3048,84.4542,6770,0.0000018,0.99895348,0.0000,05/11.0411/2021,2000,g  6.0,4.0
# From MPC102955
C/2016 Q4 (Kowalski),e,7.2576,271.2855,99.3779,16.85185,0.0142473,0.57953702,6.4367,04/23.0/2019,2000,g  7.0,4.0
# From MPC112391
C/2016 R2 (PANSTARRS),e,58.2242,80.5703,33.1909,642.3742,0.0000605,0.99594859,0.0000,05/09.5539/2018,2000,g  7.0,4.0
# From MPC102099
C/2016 R3 (Borisov),e,53.0458,78.6243,118.1580,200.5020,0.0003472,0.99775868,0.0000,10/10.8163/2016,2000,g 18.0,4.0
# From MPC109144
P/2016 R4 (Gibbs),e,10.8638,168.3109,173.9855,5.332273,0.0800452,0.47551300,80.5628,04/23.0/2019,2000,g 12.5,4.0
# From MPC105543
P/2016 S1 (PANSTARRS),e,94.6439,227.5130,273.2815,8.287840,0.0413087,0.71060408,31.6921,04/23.0/2019,2000,g 12.0,4.0
# From MPC105238
C/2016 T1 (Matheny),e,129.8422,56.2493,137.3246,122.3590,0.0007282,0.98120200,0.0000,02/01.3634/2017,2000,g 14.5,4.0
# From MPC107685
C/2016 T2 (Matheny),e,81.3270,339.1159,92.2773,99.42699,0.0009941,0.98080782,0.0000,12/28.9447/2016,2000,g 14.5,4.0
# From MPC110082
C/2016 T3 (PANSTARRS),e,22.6769,271.7433,194.7096,138.2723,0.0006062,0.98082897,0.0000,09/06.9166/2017,2000,g 10.5,4.0
# From MPC103847
C/2016 U1 (NEOWISE),h,01/14.0581/2017,46.4418,61.4152,162.8151,1.000368,0.320294,2000,17.0,4.0
# From MPC106345
C/2016 VZ18 (PANSTARRS),e,24.0707,98.9272,36.3323,177.4872,0.0004168,0.99487994,0.0000,03/07.1990/2017,2000,g 19.5,4.0
# From MPC106345
P/2016 WM48 (Lemmon),e,117.4760,59.8932,36.1463,8.194497,0.0420166,0.78481585,33.0540,04/23.0/2019,2000,g 15.0,4.0
# From MPC112391
C/2016 X1 (Lemmon),e,26.4559,256.4267,224.5577,1730,0.0000137,0.99562711,0.0000,04/29.7405/2019,2000,g  6.0,4.0
# From MPC108594
C/2017 A1 (PANSTARRS),e,49.7944,121.0402,2.0884,78.78459,0.0014094,0.97090829,0.0000,05/16.9353/2017,2000,g 13.0,4.0
# From MPC108594
C/2017 A3 (Elenin),e,98.5345,97.9056,304.0949,43.49188,0.0034363,0.91140299,2.7914,04/23.0/2019,2000,g  9.5,4.0
# From MPC111768
C/2017 AB5 (PANSTARRS),e,32.4310,42.6800,78.3972,4640,0.0000031,0.99801394,0.0000,02/17.6358/2018,2000,g  5.5,4.0
# From MPC112391
C/2017 B3 (LINEAR),h,02/02.5337/2019,54.1788,2.1773,284.7552,1.002137,3.921176,2000,6.0,4.0
# From MPC103847
P/2017 B4 (PANSTARRS),e,20.0584,121.4578,11.0197,4.410520,0.1064068,0.36495152,359.9130,01/05.0/2017,2000,g 14.5,4.0
# From MPC104793
C/2017 C1 (NEOWISE),e,65.7277,357.4481,110.1682,20.67133,0.0104870,0.92736317,8.6448,04/23.0/2019,2000,g 18.0,4.0
# From MPC107685
C/2017 C2 (PANSTARRS),e,118.5919,249.8260,138.7232,98.47239,0.0010086,0.97533951,0.0000,01/21.6306/2017,2000,g 14.0,4.0
# From MPC104793
